satname,norad_id,inclination_deg,eccentricity,mean_motion_rev_per_day,perigee_km,apogee_km,l1,l2
STARLINK-1591,46045,53.1619,0.000166,15.30204784,474.0631312225023,476.3384393672204,1 46045U 20055U   26088.12406186  .00007556  00000+0  26695-3 0  9996,2 46045  53.1619  36.4286 0001660  82.2633 277.8556 15.30204784311843
STARLINK-1524,46047,53.1622,0.0001613,15.30217057,474.0587032909443,476.26957823895464,1 46047U 20055W   26088.05290881  .00000312  00000+0  22642-4 0  9995,2 46047  53.1622  23.8997 0001613 113.3490 246.7680 15.30217057312035
STARLINK-1527,46048,53.1604,0.0001067,15.30203933,474.4720748025975,475.9345776282107,1 46048U 20055X   26088.05925615  .00004426  00000+0  16146-3 0  9997,2 46048  53.1604  23.9697 0001067  90.1989 269.9134 15.30203933312019
STARLINK-1540,46051,53.1628,0.0001825,15.30210695,473.9324053382343,476.43386718796955,1 46051U 20055AA  26088.08240822  .00002946  00000+0  11152-3 0  9991,2 46051  53.1628  23.7652 0001825 102.2036 257.9169 15.30210695312050
STARLINK-1541,46052,53.1624,0.0001978,15.30223522,473.78925871931915,476.5004170143793,1 46052U 20055AB  26088.13718433 -.00004674  00000+0 -14565-3 0  9999,2 46052  53.1624  23.5544 0001978  98.6793 261.4432 15.30223522312025
STARLINK-1543,46053,53.1616,0.0001429,15.30222355,474.1689877588951,476.1276567039886,1 46053U 20055AC  26088.20882291  .00001312  00000+0  56390-4 0  9999,2 46053  53.1616  23.2454 0001429  94.4054 265.7110 15.30222355312066
STARLINK-1548,46054,53.1614,0.0001178,15.30215992,474.36000135678296,475.9746398547177,1 46054U 20055AD  26088.08557676  .00000171  00000+0  17899-4 0  9995,2 46054  53.1614  23.8226 0001178  81.3804 278.7330 15.30215992312042
STARLINK-1554,46055,53.1626,0.0001629,15.30196281,474.1097608444643,476.3425865664576,1 46055U 20055AE  26088.21412442 -.00001724  00000+0 -46089-4 0  9992,2 46055  53.1626  23.3457 0001629  74.9005 285.2176 15.30196281312061
STARLINK-1564,46058,53.1616,0.000155,15.30217437,474.1007446738013,476.22526767571435,1 46058U 20055AH  26088.21206470  .00005368  00000+0  19313-3 0  9992,2 46058  53.1616  23.6893 0001550  96.7525 263.3652 15.30217437312054
STARLINK-1570,46059,53.1618,0.0001284,15.3020688,474.31455928834566,476.07449482449374,1 46059U 20055AJ  26088.11087181  .00007712  00000+0  27217-3 0  9995,2 46059  53.1618  23.7039 0001284 100.0323 260.0823 15.30206880312008
STARLINK-1572,46060,53.1605,0.0001463,15.30213654,474.17166189623276,476.1769407830043,1 46060U 20055AK  26088.12775867  .00016661  00000+0  57316-3 0  9999,2 46060  53.1605  23.8292 0001463  81.1296 278.9870 15.30213654312013
STARLINK-1573,46061,53.1613,0.0001302,15.30214268,474.2801671814268,476.064768966914,1 46061U 20055AL  26088.09505675  .00007416  00000+0  26215-3 0  9996,2 46061  53.1613  23.7282 0001302  78.2326 281.8820 15.30214268312047
STARLINK-1577,46063,53.1615,0.0001027,15.30218587,474.455738991408,475.8634061074099,1 46063U 20055AN  26088.12138867  .00012800  00000+0  44330-3 0  9998,2 46063  53.1615  23.5756 0001027  97.5438 262.5679 15.30218587312043
STARLINK-1583,46064,53.1626,0.0001399,15.30214758,474.2122272557144,476.1297828355264,1 46064U 20055AP  26088.09189458  .00002674  00000+0  10233-3 0  9990,2 46064  53.1626  23.7457 0001399  88.5844 271.5317 15.30214758312033
STARLINK-1525,46066,53.0574,0.0001602,15.30383034,473.57079789678573,475.7664368165879,1 46066U 20055AR  26088.16755125  .00094317  00000+0  31384-2 0  9994,2 46066  53.0574   6.6162 0001602 140.4946 219.6170 15.30383034312277
STARLINK-1536,46070,53.0571,6.76e-05,15.09375484,537.6395744139782,538.5746506179903,1 46070U 20055AV  26088.25003471  .00127815  00000+0  77896-2 0  9997,2 46070  53.0571   8.7935 0000676  82.6771 253.4942 15.09375484  5822
STARLINK-1542,46073,53.0541,0.0001392,15.06421929,546.1803503630836,548.1083486907919,1 46073U 20055AY  26088.04967335  .00002322  00000+0  17460-3 0  9992,2 46073  53.0541   9.7082 0001392  86.5009 273.6139 15.06421929312229
STARLINK-1549,46074,53.0565,0.0001878,15.07106078,543.7482012635473,546.3485496905769,1 46074U 20055AZ  26088.10057512  .00092321  00000+0  60202-2 0  9996,2 46074  53.0565   9.4716 0001878 100.4469 259.6732 15.07106078312221
STARLINK-1551,46075,53.0562,0.000155,15.06418067,546.0827652950338,548.2296061826119,1 46075U 20055BA  26088.06072963 -.00000550  00000+0 -18025-4 0  9992,2 46075  53.0562   9.6588 0001550  94.0314 266.0853 15.06418067312221
STARLINK-1552,46076,53.0564,0.0001523,15.0641966,546.0965821165255,548.2060249337792,1 46076U 20055BB  26088.08652318 -.00000490  00000+0 -14007-4 0  9992,2 46076  53.0564   9.5443 0001523 103.4495 256.6664 15.06419660312212
STARLINK-1559,46077,53.0275,0.0004059,15.31444551,468.7213129474949,474.28184954775224,1 46077U 20055BC  26088.08492017  .00048665  00000+0  15819-2 0  9995,2 46077  53.0275 343.5285 0004059 108.1397 252.0044 15.31444551312551
STARLINK-1566,46079,53.0546,0.0001483,15.06401813,546.1789729928687,548.2330297270719,1 46079U 20055BE  26088.03862392  .00011357  00000+0  78008-3 0  9997,2 46079  53.0546   9.7578 0001483  78.1400 281.9755 15.06401813312229
STARLINK-1568,46080,53.0609,0.0005478,15.48002061,418.84594059685605,426.29679668553945,1 46080U 20055BF  26088.06528469  .00043532  00000+0  82268-3 0  9999,2 46080  53.0609 300.4048 0005478 180.6006 179.4996 15.48002061313196
STARLINK-1578,46082,53.0547,7.21e-05,15.0901651,538.7051808181404,539.7026613789631,1 46082U 20055BH  26088.25003471  .00128021  00000+0  78788-2 0  9991,2 46082  53.0547   8.7992 0000721  80.9641 271.5156 15.09016510  5829
STARLINK-1579,46083,53.056,0.0001542,15.06418353,546.0874291335958,548.2231892817563,1 46083U 20055BJ  26088.08926565  .00000991  00000+0  85355-4 0  9996,2 46083  53.0560   9.5209 0001542  96.0200 264.0965 15.06418353312224
STARLINK-1585,46117,53.0346,0.0007457,15.98428391,273.81454851155104,283.74267245302326,1 46117U 20057A   26088.25003471  .00612010  17386-3  12777-2 0  9993,2 46117  53.0346 147.3828 0007457  16.5737   1.0878 15.98428391  5950
STARLINK-1593,46119,53.0409,0.0004772,15.8208315,321.35197042794334,327.74901537116693,1 46119U 20057C   26088.25003471  .00184693  00000+0  86878-3 0  9991,2 46119  53.0409 172.4886 0004772 357.8459  54.3696 15.82083150  5978
STARLINK-1621,46127,53.0461,0.0007808,15.85786211,308.8865644960124,319.33718033517744,1 46127U 20057L   26088.25003471  .00256038  00000+0  99977-3 0  9997,2 46127  53.0461 145.3187 0007808 356.2943 244.8450 15.85786211  6046
